#aV2020  5  7  0  0  0.00000000     288 DD+AD WGS84 FIT  NGA
## 2104 345600.00000000   300.00000000 58976 0.0000000000000
+   32     1  2  3  4  5  6  7  8  9 10 11 12 13 14 15 16 17
+         18 19 20 21 22 23 24 25 26 27 28 29 30 31 32  0  0
+          0  0  0  0  0  0  0  0  0  0  0  0  0  0  0  0  0
+          0  0  0  0  0  0  0  0  0  0  0  0  0  0  0  0  0
+          0  0  0  0  0  0  0  0  0  0  0  0  0  0  0  0  0
++         2  2  2  2  2  2  2  2  2  2  2  2  2  2  2  2  2
++         2  2  2  2  2  2  2  2  2  2  2  2  2  2  2  0  0
++         0  0  0  0  0  0  0  0  0  0  0  0  0  0  0  0  0
++         0  0  0  0  0  0  0  0  0  0  0  0  0  0  0  0  0
++         0  0  0  0  0  0  0  0  0  0  0  0  0  0  0  0  0
%c cc cc ccc ccc cccc cccc cccc cccc ccccc ccccc ccccc ccccc
%c cc cc ccc ccc cccc cccc cccc cccc ccccc ccccc ccccc ccccc
%f  0.0000000  0.000000000  0.00000000000  0.000000000000000
%f  0.0000000  0.000000000  0.00000000000  0.000000000000000
%i    0    0    0    0      0      0      0      0         0
%i    0    0    0    0      0      0      0      0         0
/*      NGA, ST. LOUIS,MO.                                  
/*   EPHEMERIS COMPUTED FROM 2 DAYS OF DATA                 
/*   EPOCHA v5 SMOOTHER                                     
/*   G1762 IERS2010 SATAF SATAPC                            
*  2020  5  7  0  5  0.00000000
P  1  16814.318893  14214.867259 -15314.247319   -374.937437                    
V  1 -18722.156127  -2781.385656 -23145.006543     -0.076683                    
P  2   6453.001823 -14579.047764  21877.813656   -451.651509                    
V  2  25973.881857   4117.504260  -5125.469406     -0.062453                    
P  3  12703.003755  22092.609730   7608.634444   -167.628098                    
V  3    665.722770   9990.642728 -29790.771499     -0.118000                    
P  4   9810.712026  11739.363125  21722.280101    -85.931558                    
V  4 -19236.744475  19733.363686  -2006.185855     -0.050301                    
P  5     20.861665 -23842.767579  11356.484933    -12.189365                    
V  5   7633.248997  12893.328383  26931.840115     -0.007080                    
P  6  17692.894089  -8559.783096  17939.448817   -266.792676                    
V  6  21857.573744   5904.420450 -18752.990687     -0.070548                    
P  7  26211.929209   5692.995799   -266.342225   -275.237214                    
V  7    100.661132   2715.471745  31278.724244     -0.086552                    
P  8   -488.293364  19359.329573 -18045.955623    -33.104552                    
V  8 -16340.058970  16287.911590  18150.072957     -0.012823                    
P  9  17898.479313    663.395051  19570.108355   -212.293219                    
V  9 -15443.068115  19672.443743  13406.285957     -0.074055                    
P 10 -14013.396551   5625.620200 -21755.113721   -333.053179                    
V 10  -8863.115485 -26381.877886  -1336.887903     -0.117188                    
P 11   6754.557190  15165.725047 -21201.698648   -284.589445                    
V 11 -25046.627504   7133.542130  -3258.636804      0.107235                    
P 12 -10373.041910 -23605.022419   6483.629881    120.900611                    
V 12    -37.592078  -8743.148338 -30609.768142     -0.043674                    
P 13   9363.740764 -20650.049776 -13875.530410      7.927138                    
V 13  14552.533252  -9829.614338  24747.140112      0.030256                    
P 14 -18639.691295  18756.360915   1187.637012    -14.735765                    
V 14  -2848.502125  -1411.301903 -31825.700279      0.025833                    
P 15  -2713.570534 -19350.310074 -18135.822571   -232.978727                    
V 15  15088.409319 -17043.063398  16588.418493      0.026154                    
P 16  -1288.074796  24279.901483   9917.942936   -155.134227                    
V 16  -5255.840572 -12168.030988  28918.094532     -0.044794                    
P 17  21220.500651 -13554.455684  -7954.196564    260.596283                    
V 17  -6132.346054   8971.500644 -30110.608152      0.060990                    
P 18 -25759.072563  -6544.170672    555.069223    181.301789                    
V 18   1315.835156  -2455.997049  31787.829210      0.125117                    
P 19  20171.431285 -17248.262214  -1070.303821   -162.257086                    
V 19    698.223239   2254.232933 -32197.176488      0.051142                    
P 20 -18157.068516  -6063.266523 -18575.789411    527.731953                    
V 20  -8604.415093 -21877.164199  15399.925199     -0.000326                    
P 21 -26056.688534  -4249.301046    685.532349     -4.760213                    
V 21    424.176176  -3283.004771  31762.925818      0.048641                    
P 22   9426.640955  24861.409545  -1314.062608   -783.085225                    
V 22  -4133.468707   -349.033607 -30914.247937      0.011044                    
P 23  17850.171187   1603.540024  20117.719110   -116.286688                    
V 23 -15290.934429  19345.779617  11859.780825      0.030818                    
P 24 -15589.712762 -14471.177286 -16322.192242    -12.679211                    
V 24  20368.782392    992.539030 -20218.297020     -0.005159                    
P 25 -15604.177441 -15940.035648  14376.247713      2.053349                    
V 25  -3900.687864 -18241.123726 -23796.098121      0.029177                    
P 26  -7948.127701  17179.705313  18505.870897    201.524889                    
V 26  -9760.650494 -21668.119606  16112.080149      0.072443                    
P 27 -10264.855252  21995.455539 -10510.219900   -286.767339                    
V 27 -10493.264257   8355.376933  28433.982694     -0.102497                    
P 28  13308.868294  -6671.851899 -21426.786190    719.554322                    
V 28   6555.855190  27785.023521  -4321.171279     -0.032111                    
P 29 -15532.203006  -4386.243317  21054.398436    -98.326185                    
V 29  18814.809538 -19040.413341   9871.928421     -0.089718                    
P 30  24165.812691  -2273.392218 -10990.250589   -214.498469                    
V 30  12876.811031   6152.198336  26736.031347     -0.082773                    
P 31 -17006.175210   9182.938600  18371.110381    -40.716575                    
V 31 -22301.273776  -6725.108280 -16797.679841     -0.024160                    
P 32 -20482.154355  14874.366963  -7711.642146    275.210964                    
V 32   4443.510553  -9356.359892 -29679.748598      0.078716                    
EOF
